STARLINK-36349          
1 67964U 26038D   26083.25002315 -.01770928  00000+0 -35869-1 0  9995
2 67964  97.2856  94.0605 0001553  73.3371 328.8709 15.49765234  5540
STARLINK-36806          
1 67965U 26038E   26083.25002315 -.02287667  00000+0 -61097-1 0  9992
2 67965  97.2848  94.1122 0001800  80.0911  68.8200 15.41487389  5548
STARLINK-36820          
1 67966U 26038F   26083.25002315 -.02298169  00000+0 -61182-1 0  9997
2 67966  97.2851  94.1178 0001677  79.6327  82.8230 15.41599998  5540
STARLINK-36819          
1 67967U 26038G   26083.02637531  .00078795  00000+0  14358-2 0  9998
2 67967  97.2850  93.7364 0001306 100.6140 259.5258 15.49193777  5422
STARLINK-36812          
1 67968U 26038H   26083.25002315 -.02279151  00000+0 -58579-1 0  9995
2 67968  97.2856  94.1284 0001797  72.5706 114.3659 15.42617646  5549
STARLINK-36709          
1 67969U 26038J   26083.25002315 -.02231156  00000+0 -54894-1 0  9995
2 67969  97.2850  94.1359 0001930  73.0100 130.9159 15.44427965  5544
STARLINK-36319          
1 67970U 26038K   26083.25002315 -.02227205  00000+0 -52953-1 0  9991
2 67970  97.2853  94.0910 0002027  78.6759  23.1859 15.45417935  5514
STARLINK-36710          
1 67971U 26038L   26083.25002315 -.02266354  00000+0 -56908-1 0  9994
2 67971  97.2852  94.1457 0002012  77.8365 149.1431 15.43286877  5544
STARLINK-36894          
1 67972U 26038M   26083.25002315 -.02214380  00000+0 -56163-1 0  9990
2 67972  97.2856  94.1518 0001995  90.5673 150.2432 15.43503965  5544
STARLINK-36900          
1 67973U 26038N   26083.00162155  .00066324  00000+0  12111-2 0  9998
2 67973  97.2851  93.7703 0001199  87.4725 272.6664 15.49184011  5426
STARLINK-36901          
1 67974U 26038P   26083.25002315 -.02223047  00000+0 -55172-1 0  9991
2 67974  97.2854  94.1560 0001955  79.7003 171.3008 15.44157959  5545
STARLINK-36883          
1 67975U 26038Q   26083.25002315  .00032893  00000+0  60513-3 0  9992
2 67975  97.2857  94.1433 0001830  97.0143 129.8657 15.49131725  5544
