CCSDS_OMM_VERS = 2.0
CREATION_DATE  = 
ORIGINATOR     = 

OBJECT_NAME    = STARLINK-36349
OBJECT_ID      = 2026-038D
CENTER_NAME    = EARTH
REF_FRAME      = TEME
TIME_SYSTEM    = UTC
MEAN_ELEMENT_THEORY = SGP/SGP4

EPOCH          = 2026-03-24T06:00:02.000160
MEAN_MOTION    = 15.49765234
ECCENTRICITY   = .00015537
INCLINATION    = 97.2856
RA_OF_ASC_NODE = 94.0605
ARG_OF_PERICENTER = 73.3371
MEAN_ANOMALY   = 328.8709

EPHEMERIS_TYPE = 0
CLASSIFICATION_TYPE = U
NORAD_CAT_ID   = 67964
ELEMENT_SET_NO = 999
REV_AT_EPOCH   = 554
BSTAR          = -.35868573E-1
MEAN_MOTION_DOT = -.1770928E-1
MEAN_MOTION_DDOT = 0

CCSDS_OMM_VERS = 2.0
CREATION_DATE  = 
ORIGINATOR     = 

OBJECT_NAME    = STARLINK-36806
OBJECT_ID      = 2026-038E
CENTER_NAME    = EARTH
REF_FRAME      = TEME
TIME_SYSTEM    = UTC
MEAN_ELEMENT_THEORY = SGP/SGP4

EPOCH          = 2026-03-24T06:00:02.000160
MEAN_MOTION    = 15.41487389
ECCENTRICITY   = .00018008
INCLINATION    = 97.2848
RA_OF_ASC_NODE = 94.1122
ARG_OF_PERICENTER = 80.0911
MEAN_ANOMALY   = 68.8200

EPHEMERIS_TYPE = 0
CLASSIFICATION_TYPE = U
NORAD_CAT_ID   = 67965
ELEMENT_SET_NO = 999
REV_AT_EPOCH   = 554
BSTAR          = -.61096822E-1
MEAN_MOTION_DOT = -.2287667E-1
MEAN_MOTION_DDOT = 0

CCSDS_OMM_VERS = 2.0
CREATION_DATE  = 
ORIGINATOR     = 

OBJECT_NAME    = STARLINK-36820
OBJECT_ID      = 2026-038F
CENTER_NAME    = EARTH
REF_FRAME      = TEME
TIME_SYSTEM    = UTC
MEAN_ELEMENT_THEORY = SGP/SGP4

EPOCH          = 2026-03-24T06:00:02.000160
MEAN_MOTION    = 15.41599998
ECCENTRICITY   = .00016772
INCLINATION    = 97.2851
RA_OF_ASC_NODE = 94.1178
ARG_OF_PERICENTER = 79.6327
MEAN_ANOMALY   = 82.8230

EPHEMERIS_TYPE = 0
CLASSIFICATION_TYPE = U
NORAD_CAT_ID   = 67966
ELEMENT_SET_NO = 999
REV_AT_EPOCH   = 554
BSTAR          = -.61181517E-1
MEAN_MOTION_DOT = -.2298169E-1
MEAN_MOTION_DDOT = 0

CCSDS_OMM_VERS = 2.0
CREATION_DATE  = 
ORIGINATOR     = 

OBJECT_NAME    = STARLINK-36819
OBJECT_ID      = 2026-038G
CENTER_NAME    = EARTH
REF_FRAME      = TEME
TIME_SYSTEM    = UTC
MEAN_ELEMENT_THEORY = SGP/SGP4

EPOCH          = 2026-03-24T00:37:58.826784
MEAN_MOTION    = 15.49193777
ECCENTRICITY   = .00013061
INCLINATION    = 97.2850
RA_OF_ASC_NODE = 93.7364
ARG_OF_PERICENTER = 100.6140
MEAN_ANOMALY   = 259.5258

EPHEMERIS_TYPE = 0
CLASSIFICATION_TYPE = U
NORAD_CAT_ID   = 67967
ELEMENT_SET_NO = 999
REV_AT_EPOCH   = 542
BSTAR          = .14357524E-2
MEAN_MOTION_DOT = .78795E-3
MEAN_MOTION_DDOT = 0

CCSDS_OMM_VERS = 2.0
CREATION_DATE  = 
ORIGINATOR     = 

OBJECT_NAME    = STARLINK-36812
OBJECT_ID      = 2026-038H
CENTER_NAME    = EARTH
REF_FRAME      = TEME
TIME_SYSTEM    = UTC
MEAN_ELEMENT_THEORY = SGP/SGP4

EPOCH          = 2026-03-24T06:00:02.000160
MEAN_MOTION    = 15.42617646
ECCENTRICITY   = .0001797
INCLINATION    = 97.2856
RA_OF_ASC_NODE = 94.1284
ARG_OF_PERICENTER = 72.5706
MEAN_ANOMALY   = 114.3659

EPHEMERIS_TYPE = 0
CLASSIFICATION_TYPE = U
NORAD_CAT_ID   = 67968
ELEMENT_SET_NO = 999
REV_AT_EPOCH   = 554
BSTAR          = -.58578772E-1
MEAN_MOTION_DOT = -.2279151E-1
MEAN_MOTION_DDOT = 0

CCSDS_OMM_VERS = 2.0
CREATION_DATE  = 
ORIGINATOR     = 

OBJECT_NAME    = STARLINK-36709
OBJECT_ID      = 2026-038J
CENTER_NAME    = EARTH
REF_FRAME      = TEME
TIME_SYSTEM    = UTC
MEAN_ELEMENT_THEORY = SGP/SGP4

EPOCH          = 2026-03-24T06:00:02.000160
MEAN_MOTION    = 15.44427965
ECCENTRICITY   = .00019305
INCLINATION    = 97.2850
RA_OF_ASC_NODE = 94.1359
ARG_OF_PERICENTER = 73.0100
MEAN_ANOMALY   = 130.9159

EPHEMERIS_TYPE = 0
CLASSIFICATION_TYPE = U
NORAD_CAT_ID   = 67969
ELEMENT_SET_NO = 999
REV_AT_EPOCH   = 554
BSTAR          = -.54893586E-1
MEAN_MOTION_DOT = -.2231156E-1
MEAN_MOTION_DDOT = 0

CCSDS_OMM_VERS = 2.0
CREATION_DATE  = 
ORIGINATOR     = 

OBJECT_NAME    = STARLINK-36319
OBJECT_ID      = 2026-038K
CENTER_NAME    = EARTH
REF_FRAME      = TEME
TIME_SYSTEM    = UTC
MEAN_ELEMENT_THEORY = SGP/SGP4

EPOCH          = 2026-03-24T06:00:02.000160
MEAN_MOTION    = 15.45417935
ECCENTRICITY   = .00020279
INCLINATION    = 97.2853
RA_OF_ASC_NODE = 94.0910
ARG_OF_PERICENTER = 78.6759
MEAN_ANOMALY   = 23.1859

EPHEMERIS_TYPE = 0
CLASSIFICATION_TYPE = U
NORAD_CAT_ID   = 67970
ELEMENT_SET_NO = 999
REV_AT_EPOCH   = 551
BSTAR          = -.52952983E-1
MEAN_MOTION_DOT = -.2227205E-1
MEAN_MOTION_DDOT = 0

CCSDS_OMM_VERS = 2.0
CREATION_DATE  = 
ORIGINATOR     = 

OBJECT_NAME    = STARLINK-36710
OBJECT_ID      = 2026-038L
CENTER_NAME    = EARTH
REF_FRAME      = TEME
TIME_SYSTEM    = UTC
MEAN_ELEMENT_THEORY = SGP/SGP4

EPOCH          = 2026-03-24T06:00:02.000160
MEAN_MOTION    = 15.43286877
ECCENTRICITY   = .00020127
INCLINATION    = 97.2852
RA_OF_ASC_NODE = 94.1457
ARG_OF_PERICENTER = 77.8365
MEAN_ANOMALY   = 149.1431

EPHEMERIS_TYPE = 0
CLASSIFICATION_TYPE = U
NORAD_CAT_ID   = 67971
ELEMENT_SET_NO = 999
REV_AT_EPOCH   = 554
BSTAR          = -.56907941E-1
MEAN_MOTION_DOT = -.2266354E-1
MEAN_MOTION_DDOT = 0

CCSDS_OMM_VERS = 2.0
CREATION_DATE  = 
ORIGINATOR     = 

OBJECT_NAME    = STARLINK-36894
OBJECT_ID      = 2026-038M
CENTER_NAME    = EARTH
REF_FRAME      = TEME
TIME_SYSTEM    = UTC
MEAN_ELEMENT_THEORY = SGP/SGP4

EPOCH          = 2026-03-24T06:00:02.000160
MEAN_MOTION    = 15.43503965
ECCENTRICITY   = .00019955
INCLINATION    = 97.2856
RA_OF_ASC_NODE = 94.1518
ARG_OF_PERICENTER = 90.5673
MEAN_ANOMALY   = 150.2432

EPHEMERIS_TYPE = 0
CLASSIFICATION_TYPE = U
NORAD_CAT_ID   = 67972
ELEMENT_SET_NO = 999
REV_AT_EPOCH   = 554
BSTAR          = -.561631E-1
MEAN_MOTION_DOT = -.221438E-1
MEAN_MOTION_DDOT = 0

CCSDS_OMM_VERS = 2.0
CREATION_DATE  = 
ORIGINATOR     = 

OBJECT_NAME    = STARLINK-36900
OBJECT_ID      = 2026-038N
CENTER_NAME    = EARTH
REF_FRAME      = TEME
TIME_SYSTEM    = UTC
MEAN_ELEMENT_THEORY = SGP/SGP4

EPOCH          = 2026-03-24T00:02:20.101920
MEAN_MOTION    = 15.49184011
ECCENTRICITY   = .00011996
INCLINATION    = 97.2851
RA_OF_ASC_NODE = 93.7703
ARG_OF_PERICENTER = 87.4725
MEAN_ANOMALY   = 272.6664

EPHEMERIS_TYPE = 0
CLASSIFICATION_TYPE = U
NORAD_CAT_ID   = 67973
ELEMENT_SET_NO = 999
REV_AT_EPOCH   = 542
BSTAR          = .1211113E-2
MEAN_MOTION_DOT = .66324E-3
MEAN_MOTION_DDOT = 0

CCSDS_OMM_VERS = 2.0
CREATION_DATE  = 
ORIGINATOR     = 

OBJECT_NAME    = STARLINK-36901
OBJECT_ID      = 2026-038P
CENTER_NAME    = EARTH
REF_FRAME      = TEME
TIME_SYSTEM    = UTC
MEAN_ELEMENT_THEORY = SGP/SGP4

EPOCH          = 2026-03-24T06:00:02.000160
MEAN_MOTION    = 15.44157959
ECCENTRICITY   = .00019555
INCLINATION    = 97.2854
RA_OF_ASC_NODE = 94.1560
ARG_OF_PERICENTER = 79.7003
MEAN_ANOMALY   = 171.3008

EPHEMERIS_TYPE = 0
CLASSIFICATION_TYPE = U
NORAD_CAT_ID   = 67974
ELEMENT_SET_NO = 999
REV_AT_EPOCH   = 554
BSTAR          = -.55172421E-1
MEAN_MOTION_DOT = -.2223047E-1
MEAN_MOTION_DDOT = 0

CCSDS_OMM_VERS = 2.0
CREATION_DATE  = 
ORIGINATOR     = 

OBJECT_NAME    = STARLINK-36883
OBJECT_ID      = 2026-038Q
CENTER_NAME    = EARTH
REF_FRAME      = TEME
TIME_SYSTEM    = UTC
MEAN_ELEMENT_THEORY = SGP/SGP4

EPOCH          = 2026-03-24T06:00:02.000160
MEAN_MOTION    = 15.49131725
ECCENTRICITY   = .00018306
INCLINATION    = 97.2857
RA_OF_ASC_NODE = 94.1433
ARG_OF_PERICENTER = 97.0143
MEAN_ANOMALY   = 129.8657

EPHEMERIS_TYPE = 0
CLASSIFICATION_TYPE = U
NORAD_CAT_ID   = 67975
ELEMENT_SET_NO = 999
REV_AT_EPOCH   = 554
BSTAR          = .60512744E-3
MEAN_MOTION_DOT = .32893E-3
MEAN_MOTION_DDOT = 0

